start=new Date('2022-07-01T00:00:00.000Z').valueOf();
sats=[{"SEMIMAJOR_AXIS":"6917.908","OBJECT_TYPE":"PAYLOAD","NORAD_CAT_ID":"51140","RCS_SIZE":"LARGE","SITE":"AFETR","MEAN_MOTION_DDOT":"0.0000000000000","LAUNCH_DATE":"2022-01-19","CLASSIFICATION_TYPE":"U","RA_OF_ASC_NODE":"229.7315","TLE_LINE2":"2 51140  53.2163 229.7315 0002133  43.0731 317.0427 15.08830879 25267","MEAN_MOTION":"15.08830879","REV_AT_EPOCH":"2526","ARG_OF_PERICENTER":"43.0731","REF_FRAME":"TEME","FILE":"3505946","CENTER_NAME":"EARTH","MEAN_ANOMALY":"317.0427","ECCENTRICITY":"0.00021330","MEAN_MOTION_DOT":"0.00000956","GP_ID":"207178111","EPHEMERIS_TYPE":"0","OBJECT_NAME":"STARLINK-3175","TIME_SYSTEM":"UTC","PERIAPSIS":"538.298","COUNTRY_CODE":"US","MEAN_ELEMENT_THEORY":"SGP4","BSTAR":"0.00007815900000","DECAY_DATE":null,"TLE_LINE1":"1 51140U 22005AN  22181.86724367  .00000956  00000-0  78159-4 0  9991","PERIOD":"95.438","APOAPSIS":"541.249","OBJECT_ID":"2022-005AN","INCLINATION":"53.2163","EPOCH":"2022-06-30T20:48:49.853088","ELEMENT_SET_NO":"999"},{"MEAN_MOTION_DDOT":"0.0000000000000","OBJECT_TYPE":"PAYLOAD","SEMIMAJOR_AXIS":"6917.898","RCS_SIZE":"LARGE","SITE":"AFETR","NORAD_CAT_ID":"51141","CENTER_NAME":"EARTH","MEAN_ANOMALY":"317.1104","REF_FRAME":"TEME","FILE":"3505946","ECCENTRICITY":"0.00018700","RA_OF_ASC_NODE":"229.8095","TLE_LINE2":"2 51141  53.2182 229.8095 0001870  43.0034 317.1104 15.08834232 25268","MEAN_MOTION":"15.08834232","CLASSIFICATION_TYPE":"U","LAUNCH_DATE":"2022-01-19","REV_AT_EPOCH":"2526","ARG_OF_PERICENTER":"43.0034","PERIAPSIS":"538.469","GP_ID":"207178361","EPHEMERIS_TYPE":"0","TIME_SYSTEM":"UTC","OBJECT_NAME":"STARLINK-3179","MEAN_ELEMENT_THEORY":"SGP4","BSTAR":"0.00001191900000","COUNTRY_CODE":"US","MEAN_MOTION_DOT":"-0.00000098","EPOCH":"2022-06-30T20:22:19.260192","INCLINATION":"53.2182","ELEMENT_SET_NO":"999","PERIOD":"95.438","OBJECT_ID":"2022-005AP","APOAPSIS":"541.057","DECAY_DATE":null,"TLE_LINE1":"1 51141U 22005AP  22181.84883403 -.00000098  00000-0  11919-4 0  9996"},{"PERIOD":"95.439","OBJECT_ID":"2022-005AQ","APOAPSIS":"541.290","DECAY_DATE":null,"TLE_LINE1":"1 51142U 22005AQ  22181.91667824  .00028167  00000-0  17821-2 0  9994","EPOCH":"2022-06-30T22:00:00.999936","INCLINATION":"53.2181","ELEMENT_SET_NO":"999","MEAN_MOTION_DOT":"0.00028167","PERIAPSIS":"538.370","GP_ID":"207179113","EPHEMERIS_TYPE":"0","OBJECT_NAME":"STARLINK-3369","TIME_SYSTEM":"UTC","MEAN_ELEMENT_THEORY":"SGP4","BSTAR":"0.00178210000000","COUNTRY_CODE":"US","RA_OF_ASC_NODE":"219.5020","TLE_LINE2":"2 51142  53.2181 219.5020 0002110  41.6970 357.0080 15.08812294  1302","MEAN_MOTION":"15.08812294","LAUNCH_DATE":"2022-01-19","CLASSIFICATION_TYPE":"U","REV_AT_EPOCH":"130","ARG_OF_PERICENTER":"41.6970","CENTER_NAME":"EARTH","MEAN_ANOMALY":"357.0080","REF_FRAME":"TEME","FILE":"3505946","ECCENTRICITY":"0.00021100","OBJECT_TYPE":"PAYLOAD","SEMIMAJOR_AXIS":"6917.965","SITE":"AFETR","RCS_SIZE":"LARGE","NORAD_CAT_ID":"51142","MEAN_MOTION_DDOT":"0.0000000000000"},{"PERIOD":"95.437","APOAPSIS":"541.504","OBJECT_ID":"2022-005AR","DECAY_DATE":null,"TLE_LINE1":"1 51143U 22005AR  22181.56822943  .00003282  00000-0  22422-3 0  9996","ELEMENT_SET_NO":"999","EPOCH":"2022-06-30T13:38:15.022752","INCLINATION":"53.2157","MEAN_MOTION_DOT":"0.00003282","MEAN_ELEMENT_THEORY":"SGP4","BSTAR":"0.00022422000000","COUNTRY_CODE":"US","PERIAPSIS":"537.956","GP_ID":"207149831","TIME_SYSTEM":"UTC","EPHEMERIS_TYPE":"0","OBJECT_NAME":"STARLINK-3184","REV_AT_EPOCH":"2507","ARG_OF_PERICENTER":"30.1930","RA_OF_ASC_NODE":"241.0859","MEAN_MOTION":"15.08845040","TLE_LINE2":"2 51143  53.2157 241.0859 0002565  30.1930 329.9209 15.08845040 25075","CLASSIFICATION_TYPE":"U","LAUNCH_DATE":"2022-01-19","ECCENTRICITY":"0.00025650","CENTER_NAME":"EARTH","MEAN_ANOMALY":"329.9209","REF_FRAME":"TEME","FILE":"3505769","SITE":"AFETR","RCS_SIZE":"LARGE","NORAD_CAT_ID":"51143","OBJECT_TYPE":"PAYLOAD","SEMIMAJOR_AXIS":"6917.865","MEAN_MOTION_DDOT":"0.0000000000000"},{"OBJECT_TYPE":"PAYLOAD","SEMIMAJOR_AXIS":"6917.884","SITE":"AFETR","RCS_SIZE":"LARGE","NORAD_CAT_ID":"51144","MEAN_MOTION_DDOT":"0.0000000000000","TLE_LINE2":"2 51144  53.2178 229.7914 0001822  50.3246 309.7906 15.08838789 25266","MEAN_MOTION":"15.08838789","RA_OF_ASC_NODE":"229.7914","CLASSIFICATION_TYPE":"U","LAUNCH_DATE":"2022-01-19","ARG_OF_PERICENTER":"50.3246","REV_AT_EPOCH":"2526","MEAN_ANOMALY":"309.7906","CENTER_NAME":"EARTH","FILE":"3505946","REF_FRAME":"TEME","ECCENTRICITY":"0.00018220","MEAN_MOTION_DOT":"0.00000947","PERIAPSIS":"538.489","TIME_SYSTEM":"UTC","EPHEMERIS_TYPE":"0","OBJECT_NAME":"STARLINK-3185","GP_ID":"207177612","BSTAR":"0.00007760700000","MEAN_ELEMENT_THEORY":"SGP4","COUNTRY_CODE":"US","OBJECT_ID":"2022-005AS","APOAPSIS":"541.010","PERIOD":"95.438","TLE_LINE1":"1 51144U 22005AS  22181.85250113  .00000947  00000-0  77607-4 0  9994","DECAY_DATE":null,"EPOCH":"2022-06-30T20:27:36.097632","INCLINATION":"53.2178","ELEMENT_SET_NO":"999"},{"MEAN_MOTION_DOT":"0.00001283","TIME_SYSTEM":"UTC","EPHEMERIS_TYPE":"0","OBJECT_NAME":"STARLINK-3365","GP_ID":"207150833","PERIAPSIS":"537.799","COUNTRY_CODE":"US","BSTAR":"0.00009868300000","MEAN_ELEMENT_THEORY":"SGP4","TLE_LINE1":"1 51145U 22005AT  22181.56452764  .00001283  00000-0  98683-4 0  9990","DECAY_DATE":null,"APOAPSIS":"541.655","OBJECT_ID":"2022-005AT","PERIOD":"95.437","INCLINATION":"53.2162","EPOCH":"2022-06-30T13:32:55.188096","ELEMENT_SET_NO":"999","SEMIMAJOR_AXIS":"6917.862","OBJECT_TYPE":"PAYLOAD","NORAD_CAT_ID":"51145","SITE":"AFETR","RCS_SIZE":"LARGE","MEAN_MOTION_DDOT":"0.0000000000000","CLASSIFICATION_TYPE":"U","LAUNCH_DATE":"2022-01-19","MEAN_MOTION":"15.08846030","TLE_LINE2":"2 51145  53.2162 241.1017 0002787  29.5779 330.5370 15.08846030 25076","RA_OF_ASC_NODE":"241.1017","ARG_OF_PERICENTER":"29.5779","REV_AT_EPOCH":"2507","FILE":"3505769","REF_FRAME":"TEME","MEAN_ANOMALY":"330.5370","CENTER_NAME":"EARTH","ECCENTRICITY":"0.00027870"},{"ELEMENT_SET_NO":"999","EPOCH":"2022-06-30T20:38:13.708896","INCLINATION":"53.2176","OBJECT_ID":"2022-005AU","APOAPSIS":"541.055","PERIOD":"95.438","TLE_LINE1":"1 51146U 22005AU  22181.85988089  .00000835  00000-0  70564-4 0  9997","DECAY_DATE":null,"BSTAR":"0.00007056400000","MEAN_ELEMENT_THEORY":"SGP4","COUNTRY_CODE":"US","PERIAPSIS":"538.487","TIME_SYSTEM":"UTC","EPHEMERIS_TYPE":"0","OBJECT_NAME":"STARLINK-3354","GP_ID":"207154127","MEAN_MOTION_DOT":"0.00000835","ECCENTRICITY":"0.00018560","CENTER_NAME":"EARTH","MEAN_ANOMALY":"315.2568","FILE":"3505876","REF_FRAME":"TEME","ARG_OF_PERICENTER":"44.8573","REV_AT_EPOCH":"2637","TLE_LINE2":"2 51146  53.2176 229.7583 0001856  44.8573 315.2568 15.08831582 26379","MEAN_MOTION":"15.08831582","RA_OF_ASC_NODE":"229.7583","CLASSIFICATION_TYPE":"U","LAUNCH_DATE":"2022-01-19","MEAN_MOTION_DDOT":"0.0000000000000","SITE":"AFETR","RCS_SIZE":"LARGE","NORAD_CAT_ID":"51146","OBJECT_TYPE":"PAYLOAD","SEMIMAJOR_AXIS":"6917.906"},{"SEMIMAJOR_AXIS":"6917.920","OBJECT_TYPE":"PAYLOAD","NORAD_CAT_ID":"51147","RCS_SIZE":"LARGE","SITE":"AFETR","MEAN_MOTION_DDOT":"0.0000000000000","CLASSIFICATION_TYPE":"U","LAUNCH_DATE":"2022-01-19","TLE_LINE2":"2 51147  53.2169 241.0646 0001604  59.6028 300.5122 15.08827120 25071","MEAN_MOTION":"15.08827120","RA_OF_ASC_NODE":"241.0646","ARG_OF_PERICENTER":"59.6028","REV_AT_EPOCH":"2507","FILE":"3505769","REF_FRAME":"TEME","CENTER_NAME":"EARTH","MEAN_ANOMALY":"300.5122","ECCENTRICITY":"0.00016040","MEAN_MOTION_DOT":"-0.00000427","EPHEMERIS_TYPE":"0","OBJECT_NAME":"STARLINK-3352","TIME_SYSTEM":"UTC","GP_ID":"207149331","PERIAPSIS":"538.675","COUNTRY_CODE":"US","BSTAR":"-0.00000875920000","MEAN_ELEMENT_THEORY":"SGP4","TLE_LINE1":"1 51147U 22005AV  22181.57191398 -.00000427  00000-0 -87592-5 0  9995","DECAY_DATE":null,"OBJECT_ID":"2022-005AV","APOAPSIS":"540.894","PERIOD":"95.438","INCLINATION":"53.2169","EPOCH":"2022-06-30T13:43:33.367872","ELEMENT_SET_NO":"999"},{"SITE":"AFETR","RCS_SIZE":"LARGE","NORAD_CAT_ID":"51148","OBJECT_TYPE":"PAYLOAD","SEMIMAJOR_AXIS":"6917.902","MEAN_MOTION_DDOT":"0.0000000000000","REV_AT_EPOCH":"2507","ARG_OF_PERICENTER":"40.0132","RA_OF_ASC_NODE":"241.1074","TLE_LINE2":"2 51148  53.2161 241.1074 0002111  40.0132 320.1015 15.08832912 25078","MEAN_MOTION":"15.08832912","CLASSIFICATION_TYPE":"U","LAUNCH_DATE":"2022-01-19","ECCENTRICITY":"0.00021110","MEAN_ANOMALY":"320.1015","CENTER_NAME":"EARTH","REF_FRAME":"TEME","FILE":"3505769","MEAN_MOTION_DOT":"0.00001154","MEAN_ELEMENT_THEORY":"SGP4","BSTAR":"0.00009060900000","COUNTRY_CODE":"US","PERIAPSIS":"538.307","GP_ID":"207150583","TIME_SYSTEM":"UTC","EPHEMERIS_TYPE":"0","OBJECT_NAME":"STARLINK-3359","PERIOD":"95.438","APOAPSIS":"541.227","OBJECT_ID":"2022-005AW","DECAY_DATE":null,"TLE_LINE1":"1 51148U 22005AW  22181.56087296  .00001154  00000-0  90609-4 0  9994","ELEMENT_SET_NO":"999","EPOCH":"2022-06-30T13:27:39.423744","INCLINATION":"53.2161"},{"EPOCH":"2022-06-30T13:22:20.011584","INCLINATION":"53.2157","ELEMENT_SET_NO":"999","PERIOD":"95.437","OBJECT_ID":"2022-005AX","APOAPSIS":"541.412","DECAY_DATE":null,"TLE_LINE1":"1 51149U 22005AX  22181.55717606  .00001122  00000-0  88611-4 0  9994","PERIAPSIS":"538.072","GP_ID":"207150333","TIME_SYSTEM":"UTC","EPHEMERIS_TYPE":"0","OBJECT_NAME":"STARLINK-3360","MEAN_ELEMENT_THEORY":"SGP4","BSTAR":"0.00008861100000","COUNTRY_CODE":"US","MEAN_MOTION_DOT":"0.00001122","CENTER_NAME":"EARTH","MEAN_ANOMALY":"318.1545","REF_FRAME":"TEME","FILE":"3505769","ECCENTRICITY":"0.00024140","RA_OF_ASC_NODE":"241.1206","MEAN_MOTION":"15.08841211","TLE_LINE2":"2 51149  53.2157 241.1206 0002414  41.9632 318.1545 15.08841211 25079","CLASSIFICATION_TYPE":"U","LAUNCH_DATE":"2022-01-19","REV_AT_EPOCH":"2507","ARG_OF_PERICENTER":"41.9632","MEAN_MOTION_DDOT":"0.0000000000000","OBJECT_TYPE":"PAYLOAD","SEMIMAJOR_AXIS":"6917.877","SITE":"AFETR","RCS_SIZE":"LARGE","NORAD_CAT_ID":"51149"}];
